NORAD_CAT_ID,OBJECT_NAME,OBJECT_TYPE,EPOCH,MEAN_MOTION,ECCENTRICITY,INCLINATION,RA_OF_ASC_NODE,ARG_OF_PERICENTER,MEAN_ANOMALY,BSTAR,MEAN_MOTION_DOT,MEAN_MOTION_DDOT,TLE_LINE0,TLE_LINE1,TLE_LINE2,SEMIMAJOR_AXIS,PERIOD,APOGEE,PERIGEE,DECAYED
56454.0,STARLINK-5959,PAYLOAD,2024-07-14 19:55:16,14.98331773,0.0003465,69.9987,224.4698,268.1953,91.8809,4.4046e-05,4.33e-06,0.0,0 STARLINK-5959,1 56454U 23064G   24196.83004866  .00000433  00000-0  44046-4 0  9998,2 56454  69.9987 224.4698 0003465 268.1953  91.8809 14.98331773 65306,6950.187,96.107,574.461,569.644,0.0
56454.0,STARLINK-5959,PAYLOAD,2024-07-15 11:56:36,14.98331183,0.0003499,69.9987,222.7868,268.3107,91.7651,3.0816e-05,2.75e-06,0.0,0 STARLINK-5959,1 56454U 23064G   24197.49764928  .00000275  00000-0  30816-4 0  9997,2 56454  69.9987 222.7868 0003499 268.3107  91.7651 14.98331183 65046,6950.189,96.107,574.486,569.622,0.0
56454.0,STARLINK-5959,PAYLOAD,2024-07-16 03:57:57,14.98332852,0.000346,69.9987,221.1036,268.3576,91.7187,6.4144e-06,-1.7e-07,0.0,0 STARLINK-5959,1 56454U 23064G   24198.16524788 -.00000017  00000-0  64144-5 0  9997,2 56454  69.9987 221.1036 0003460 268.3576  91.7187 14.98332852 65503,6950.184,96.107,574.454,569.644,0.0
56454.0,STARLINK-5959,PAYLOAD,2024-07-16 11:58:37,14.98334172,0.0003457,69.9987,220.2619,268.5417,91.5345,1.1618e-05,4.6e-07,0.0,0 STARLINK-5959,1 56454U 23064G   24198.49904614  .00000046  00000-0  11618-4 0  9991,2 56454  69.9987 220.2619 0003457 268.5417  91.5345 14.98334172 65198,6950.18,96.107,574.448,569.642,0.0
56454.0,STARLINK-5959,PAYLOAD,2024-07-17 05:36:06,14.98326521,0.0003412,69.9988,218.4105,269.5517,90.5251,-5.4087e-06,-1.58e-06,0.0,0 STARLINK-5959,1 56454U 23064G   24199.23341180 -.00000158  00000-0 -54087-5 0  9991,2 56454  69.9988 218.4105 0003412 269.5517  90.5251 14.98326521 65667,6950.204,96.107,574.44,569.697,0.0
56454.0,STARLINK-5959,PAYLOAD,2024-07-17 10:24:30,14.98326435,0.0003371,69.9989,217.9057,269.0901,90.9872,5.4199e-06,-2.8e-07,0.0,0 STARLINK-5959,1 56454U 23064G   24199.43369196 -.00000028  00000-0  54199-5 0  9999,2 56454  69.9989 217.9057 0003371 269.0901  90.9872 14.98326435 65335,6950.204,96.107,574.412,569.726,0.0
56454.0,STARLINK-5959,PAYLOAD,2024-07-18 05:38:07,14.98331495,0.0003343,69.9989,215.8858,268.3116,91.766,3.9631e-05,3.8e-06,0.0,0 STARLINK-5959,1 56454U 23064G   24200.23480902  .00000380  00000-0  39631-4 0  9992,2 56454  69.9989 215.8858 0003343 268.3116  91.7660 14.98331495 65819,6950.188,96.107,574.377,569.73,0.0
56454.0,STARLINK-5959,PAYLOAD,2024-07-18 10:26:31,14.98331932,0.0003351,69.9989,215.3809,268.7804,91.2971,4.2736e-05,4.17e-06,0.0,0 STARLINK-5959,1 56454U 23064G   24200.43508863  .00000417  00000-0  42736-4 0  9992,2 56454  69.9989 215.3809 0003351 268.7804  91.2971 14.98331932 65486,6950.187,96.107,574.381,569.723,0.0
56454.0,STARLINK-5959,PAYLOAD,2024-07-18 18:27:11,14.98331299,0.0003431,69.9988,214.5396,270.5927,89.4839,5.9141e-05,6.13e-06,0.0,0 STARLINK-5959,1 56454U 23064G   24200.76888855  .00000613  00000-0  59141-4 0  9996,2 56454  69.9988 214.5396 0003431 270.5927  89.4839 14.98331299 65537,6950.189,96.107,574.438,569.669,0.0
56454.0,STARLINK-5959,PAYLOAD,2024-07-19 05:40:08,14.98329107,0.0003473,69.9987,213.3608,269.7584,90.3177,6.5074e-05,6.83e-06,0.0,0 STARLINK-5959,1 56454U 23064G   24201.23621010  .00000683  00000-0  65074-4 0  9996,2 56454  69.9987 213.3608 0003473 269.7584  90.3177 14.98329107 65962,6950.196,96.107,574.474,569.647,0.0
56454.0,STARLINK-5959,PAYLOAD,2024-07-19 10:28:32,14.98331228,0.0003457,69.9987,212.856,269.8793,90.1969,8.5847e-05,9.31e-06,0.0,0 STARLINK-5959,1 56454U 23064G   24201.43648832  .00000931  00000-0  85847-4 0  9995,2 56454  69.9987 212.8560 0003457 269.8793  90.1969 14.98331228 65636,6950.189,96.107,574.457,569.651,0.0
56454.0,STARLINK-5959,PAYLOAD,2024-07-19 18:29:12,14.98330971,0.0003464,69.9987,212.014,269.6436,90.4326,6.4014e-05,6.71e-06,0.0,0 STARLINK-5959,1 56454U 23064G   24201.77028816  .00000671  00000-0  64014-4 0  9990,2 56454  69.9987 212.0140 0003464 269.6436  90.4326 14.98330971 65681,6950.19,96.107,574.462,569.647,0.0
56454.0,STARLINK-5959,PAYLOAD,2024-07-20 05:42:09,14.98332386,0.0003467,69.9987,210.8358,269.5625,90.5137,2.8676e-05,2.49e-06,0.0,0 STARLINK-5959,1 56454U 23064G   24202.23760772  .00000249  00000-0  28676-4 0  9991,2 56454  69.9987 210.8358 0003467 269.5625  90.5137 14.98332386 66112,6950.186,96.107,574.46,569.641,0.0
56454.0,STARLINK-5959,PAYLOAD,2024-07-20 10:30:33,14.98334014,0.0003457,69.9987,210.3308,269.4687,90.6076,4.4695e-05,4.4e-06,0.0,0 STARLINK-5959,1 56454U 23064G   24202.43788582  .00000440  00000-0  44695-4 0  9994,2 56454  69.9987 210.3308 0003457 269.4687  90.6076 14.98334014 65783,6950.18,96.107,574.448,569.643,0.0
56454.0,STARLINK-5959,PAYLOAD,2024-07-20 18:31:13,14.98332334,0.0003397,69.9989,209.4888,269.5285,90.5485,2.9532e-05,2.59e-06,0.0,0 STARLINK-5959,1 56454U 23064G   24202.77168705  .00000259  00000-0  29532-4 0  9991,2 56454  69.9989 209.4888 0003397 269.5285  90.5485 14.98332334 65837,6950.186,96.107,574.412,569.69,0.0
56454.0,STARLINK-5959,PAYLOAD,2024-07-21 05:44:10,14.98330932,0.0003403,69.999,208.3106,269.1477,90.9292,2.6374e-05,2.22e-06,0.0,0 STARLINK-5959,1 56454U 23064G   24203.23900749  .00000222  00000-0  26374-4 0  9996,2 56454  69.9990 208.3106 0003403 269.1477  90.9292 14.98330932 66267,6950.19,96.107,574.42,569.69,0.0
56454.0,STARLINK-5959,PAYLOAD,2024-07-21 10:32:34,14.98331353,0.0003421,69.9991,207.8059,269.4903,90.5864,2.9483e-05,2.59e-06,0.0,0 STARLINK-5959,1 56454U 23064G   24203.43928707  .00000259  00000-0  29483-4 0  9996,2 56454  69.9991 207.8059 0003421 269.4903  90.5864 14.98331353 65938,6950.189,96.107,574.431,569.676,0.0
56454.0,STARLINK-5959,PAYLOAD,2024-07-22 10:34:35,14.98332556,0.0003394,69.9993,205.2811,269.776,90.301,3.364e-05,3.08e-06,0.0,0 STARLINK-5959,1 56454U 23064G   24204.44068555  .00000308  00000-0  33640-4 0  9999,2 56454  69.9993 205.2811 0003394 269.7760  90.3010 14.98332556 66445,6950.185,96.107,574.409,569.691,0.0
56454.0,STARLINK-5959,PAYLOAD,2024-07-22 23:23:39,14.98330533,0.0003391,69.9996,203.9347,269.8141,90.263,4.3459e-05,4.26e-06,0.0,0 STARLINK-5959,1 56454U 23064G   24204.97476627  .00000426  00000-0  43459-4 0  9990,2 56454  69.9996 203.9347 0003391 269.8141  90.2630 14.98330533 66167,6950.191,96.107,574.413,569.699,0.0
56454.0,STARLINK-5959,PAYLOAD,2024-07-23 09:00:28,14.9833238,0.0003366,69.9995,202.9249,269.2557,90.8216,6.2696e-05,6.55e-06,0.0,0 STARLINK-5959,1 56454U 23064G   24205.37532457  .00000655  00000-0  62696-4 0  9997,2 56454  69.9995 202.9249 0003366 269.2557  90.8216 14.98332380 66228,6950.186,96.107,574.39,569.711,0.0
56454.0,STARLINK-5959,PAYLOAD,2024-07-24 04:14:05,14.98328899,0.0003326,69.9995,200.9049,268.3158,91.762,1.7565e-05,1.17e-06,0.0,0 STARLINK-5959,1 56454U 23064G   24206.17644756  .00000117  00000-0  17565-4 0  9990,2 56454  69.9995 200.9049 0003326 268.3158  91.7620 14.98328899 66709,6950.196,96.107,574.373,569.75,0.0
56454.0,STARLINK-5959,PAYLOAD,2024-07-24 09:02:29,14.98329464,0.0003315,69.9995,200.4,268.2538,91.8241,2.3395e-05,1.86e-06,0.0,0 STARLINK-5959,1 56454U 23064G   24206.37672714  .00000186  00000-0  23395-4 0  9991,2 56454  69.9995 200.4000 0003315 268.2538  91.8241 14.98329464 66372,6950.195,96.107,574.364,569.756,0.0
56454.0,STARLINK-5959,PAYLOAD,2024-07-25 04:16:05,14.98329862,0.0003319,69.9994,198.38,267.6718,92.4061,1.525e-05,8.9e-07,0.0,0 STARLINK-5959,1 56454U 23064G   24207.17784718  .00000089  00000-0  15250-4 0  9991,2 56454  69.9994 198.3800 0003319 267.6718  92.4061 14.98329862 66853,6950.193,96.107,574.365,569.752,0.0
56454.0,STARLINK-5959,PAYLOAD,2024-07-25 05:52:14,14.98329587,0.000333,69.9994,198.2117,267.9078,92.17,1.1726e-05,4.7e-07,0.0,0 STARLINK-5959,1 56454U 23064G   24207.24460749  .00000047  00000-0  11726-4 0  9992,2 56454  69.9994 198.2117 0003330 267.9078  92.1700 14.98329587 66501,6950.194,96.107,574.374,569.745,0.0
56454.0,STARLINK-5959,PAYLOAD,2024-07-25 09:04:30,14.98330568,0.0003329,69.9995,197.8753,268.3304,91.7474,2.2242e-05,1.72e-06,0.0,0 STARLINK-5959,1 56454U 23064G   24207.37812662  .00000172  00000-0  22242-4 0  9995,2 56454  69.9995 197.8753 0003329 268.3304  91.7474 14.98330568 66524,6950.191,96.107,574.37,569.742,0.0
56454.0,STARLINK-5959,PAYLOAD,2024-07-26 04:18:06,14.9833243,0.0003384,69.9994,195.8559,267.8118,92.2654,6.8907e-05,7.29e-06,0.0,0 STARLINK-5959,1 56454U 23064G   24208.17924309  .00000729  00000-0  68907-4 0  9992,2 56454  69.9994 195.8559 0003384 267.8118  92.2654 14.98332430 67003,6950.185,96.107,574.402,569.698,0.0
56454.0,STARLINK-5959,PAYLOAD,2024-07-26 09:06:30,14.9833542,0.0003365,69.9994,195.3505,268.2536,91.8238,9.8521e-05,1.083e-05,0.0,0 STARLINK-5959,1 56454U 23064G   24208.37952002  .00001083  00000-0  98521-4 0  9994,2 56454  69.9994 195.3505 0003365 268.2536  91.8238 14.98335420 66674,6950.176,96.107,574.38,569.702,0.0
56454.0,STARLINK-5959,PAYLOAD,2024-07-26 17:07:11,14.98332098,0.0003312,69.9996,194.5088,268.5699,91.5081,5.4122e-05,5.53e-06,0.0,0 STARLINK-5959,1 56454U 23064G   24208.71332253  .00000553  00000-0  54122-4 0  9992,2 56454  69.9996 194.5088 0003312 268.5699  91.5081 14.98332098 66725,6950.186,96.107,574.353,569.75,0.0
56454.0,STARLINK-5959,PAYLOAD,2024-07-27 04:20:07,14.98331625,0.0003308,69.9996,193.3306,268.2949,91.7831,4.3392e-05,4.25e-06,0.0,0 STARLINK-5959,1 56454U 23064G   24209.18064248  .00000425  00000-0  43392-4 0  9995,2 56454  69.9996 193.3306 0003308 268.2949  91.7831 14.98331625 67153,6950.188,96.107,574.352,569.754,0.0
56454.0,STARLINK-5959,PAYLOAD,2024-07-27 05:56:15,14.98331129,0.0003296,69.9997,193.1625,268.8818,91.1963,3.8469e-05,3.66e-06,0.0,0 STARLINK-5959,1 56454U 23064G   24209.24740304  .00000366  00000-0  38469-4 0  9999,2 56454  69.9997 193.1625 0003296 268.8818  91.1963 14.98331129 66803,6950.189,96.107,574.345,569.764,0.0
